#dP2020 11 16  0  0  0.00000000      96 __u+U ITR00 FIT  IAC
## 2132  86400.00000000   900.00000000 59169 0.0000000000000
+  115   C06C07C08C09C10C11C12C13C14C16C19C20C21C22C23C24C25
+        C26C27C28C29C30C32C33C34C35C36C37C38C39C40C43C44C45
+        C46E01E02E03E04E05E07E08E09E11E12E13E14E15E18E19E21
+        E24E25E26E27E30E31E33E36G01G02G03G04G05G06G07G08G09
+        G10G11G12G13G15G16G17G18G19G20G21G22G23G24G25G26G27
+        G28G29G30G31G32J01J02J03R01R02R03R04R05R07R08R09R11
+        R12R13R14R15R16R17R18R19R20R21R22R23R24  0  0  0  0
++         8  9  8  8  8  9  7  8  7  9  7  8  8  8  6  8  7
++         7  7  7  7  6  7  8  9  9  7  8 10  9 11 11  9 10
++         6  7  7  7  7  7  6  6  6  7  6  6  7  6  7  6  6
++         7  7  8  7  7  7  7  7  6  8  8  6  6  7  6  6  6
++         7  6  6  6  7  6  6  6  6  7  5  7  6  6  6  7  6
++         7  5  6  6  6  8  8  9  7  6  7  7  6  7  7  6  7
++         8  8  6  7  6  8  7  7  8  7  5 11 11  0  0  0  0
%c M  cc GPS ccc cccc cccc cccc cccc ccccc ccccc ccccc ccccc
%c cc cc ccc ccc cccc cccc cccc cccc ccccc ccccc ccccc ccccc
%f  0.0000000  0.000000000  0.00000000000  0.000000000000000
%f  0.0000000  0.000000000  0.00000000000  0.000000000000000
%i    0    0    0    0      0      0      0      0         0
%i    0    0    0    0      0      0      0      0         0
/* INFORMATION & ANALYSIS CENTER (IAC)      ULTRA-RAPID DATA
/* S/V CLOCKS ARE ALIGNED TO GNSS TIME                      
/* G:C1WC2W R:C1PC2P E:C1XC5X C:C2IC6I J:C1CC2S             
/* PCV:IGS14_2131 OL/AL:FES2004  NONE     YN ORB:CoN CLK:CoN
*  2020 11 16 20  0  0.00000000
PC06 -19873.757121  20487.064936 -30765.170520    145.861464
PC07 -20324.911000  36621.806007   1072.973801    -45.344711
PC08  -4489.425631  30106.902129  29452.946571   -704.072360
PC09  -1633.103509  24388.657380 -34097.645905    933.519147
PC10  -8873.544580  38516.115400  14298.663123   -140.771287
PC11  17709.024384  -8351.792222 -19840.604929   -756.292489
PC12  27090.325229   3862.427488  -5525.039070    613.506008
PC13   5504.000345  37360.983263  19151.814801    746.768866
PC14  20312.643655 -19131.071286  -1292.196924    260.007444
PC16 -16650.050227  21332.679018 -32304.908393   -611.580258
PC19 -14579.121574  22442.897407  -7871.858347    620.710988
PC20 -22536.247780  13640.872686   9178.174800   -892.781991
PC21  17400.035529   3711.120330 -21495.813723   -724.884258
PC22   2072.148742  18438.325355 -20843.674386   -793.163957
PC23  -8229.249415 -26591.841563  -1909.449784   -912.404655
PC24  15208.674871  -5752.937630  22676.407035   -722.105559
PC25   3986.241720 -23529.188987  14444.994547   -829.256919
PC26  16888.073478  13462.611430  17688.762299    907.217327
PC27 -25731.753399 -10147.279436  -3762.299747    433.961435
PC28 -11949.779294 -16900.138474 -18705.337182   -145.115078
PC29  -8226.415850  14094.235210  22633.247935    312.185830
PC30 -24496.484561   3177.459241  13000.005810    404.781274
PC32 -17406.806880  -3642.881291  21508.964703   -887.481941
PC33  14524.884479 -22524.872663   7791.281802   -839.326174
PC34  24165.912872  -3565.920345 -13480.325396   -807.344599
PC35  12235.276538  16565.484692  18818.796903   -556.692562
PC36  -4695.284326  23282.003252 -14626.766033   -834.908092
PC37 -16415.833489 -14554.369629 -17211.378891   -875.598542
PC38  -2292.011933  33610.750534  25443.217912    112.490237
PC39 -10796.573562  23279.588562 -33471.761552 999999.999999
PC40 -17681.140681  36428.978686  11480.179815    101.709834
PC43   8756.525765 -14004.988606 -22491.913780   -465.066284
PC44  25960.016455   9413.282147   3922.525860   -112.955006
PC45   8338.475189  26572.844544   1979.113591    284.292964
PC46 -14797.583205   6655.860095 -22695.255439 999999.999999
PE01  17078.342446  -3656.288173  23905.611645   -984.125289
PE02 -17083.441978   3814.751770 -23866.747488    176.908736
PE03 -28479.100887   4783.121974   6459.052175   -365.772447
PE04  21897.836152 -16136.503721  11670.127345   -649.196717
PE05 -18457.350788  -9547.527152  21071.714283   -328.871953
PE07  -2243.476667  18175.839034 -23255.836496   -462.746518
PE08 -21605.539346  16306.797980 -11971.257711   6090.700075
PE09   2062.317525 -18033.383429  23379.201362   5863.041770
PE11  -7745.911405 -22242.977826 -17933.723367   6814.546520
PE12  11602.656875 -11403.217001 -24724.260202   5502.905108
PE13   7550.998859  22096.120660  18201.956494    406.560326
PE14 -18926.612199   9825.783503  11168.815275  -1227.807686
PE15 -11411.066664  11484.796624  24789.504325    843.450533
PE18  16726.714468 -17744.625487 -21205.392559  -1341.308607
PE19  28150.650100  -3171.254572  -8581.994192    130.059843
PE21  11052.317708  17392.734561  21257.018658   -632.316576
PE24   2049.487474 -28966.578227  -5670.583107   -586.721210
PE25 -10958.583890 -17538.025795 -21162.537718   -520.371714
PE26  22221.242205  19564.410958    318.521450   2488.365470
PE27  -1566.950829  28916.365303   6169.202727     91.376236
PE30 -13615.169928  22865.332894 -12980.261531   3418.588837
PE31  13208.717289 -23368.238903  12484.831268   -475.751565
PE33  23656.339652   5889.735896 -16783.728188   -463.420144
PE36 -22060.937566 -19708.884119   -914.759372    480.082868
PG01 -19388.445981 -10396.608744  14879.833936    806.807742
PG02  13892.474303  22232.240664   4940.813691   -543.340925
PG03 -16354.711475   1316.607872  20783.840882     -5.628754
PG04 -26222.369207  -1288.888267   4175.076217   -155.944296
PG05   6180.767509  18522.781702 -18075.900234    -26.054641
PG06   1710.616966  21020.857047  16178.863984     -1.271879
PG07 -14211.390205   6096.217925 -21302.802063   -415.645114
PG08 -22346.995642  -6511.097409 -13034.121047    -55.340103
PG09 -24218.507674   8051.379685  -7450.851824   -290.358547
PG10  11508.452929 -23752.335473   -995.565614   -506.218010
PG11 -23779.435884 -11278.113639   1081.838502   -106.847263
PG12  15136.254302   2510.379162  21424.589240     39.452372
PG13  14388.795407  13082.214711 -18277.136000     65.566470
PG15  23418.723343   4586.284020 -12389.346265   -189.562522
PG16  -4415.660381 -18128.941789 -18936.570903   -237.390107
PG17 -10019.715139  14088.607627  20586.538981    354.783487
PG18  12751.654643  -8097.027831 -21855.958389    322.149996
PG19  -2865.524897  14523.487277  21762.134284    -77.444066
PG20  15119.027595 -17484.714870 -12918.186970    525.994384
PG21 -20331.973477 -15810.080183   7978.799028     68.880980
PG22 -14145.611552  -7585.088943  21367.449759   -729.018151
PG23  16003.615176 -18178.050372 -10900.330312    101.020488
PG24  20754.927414  12457.641394  11141.277784      6.340789
PG25  17464.120972 -11233.535853  16162.969064     23.309652
PG26   3094.845534 -24682.720585  -8981.535211    312.791825
PG27 -11923.389039 -12640.945699 -20333.994459    -15.052829
PG28 -12358.057797  23596.245780   1520.862966    654.703573
PG29  25570.816898  -4461.774085  -5783.392141   -237.788156
PG30  -7185.678578  15721.452784 -20065.708475   -336.708611
PG31  -2875.739966 -22043.519083  14113.352773    -81.860736
PG32   9401.442001 -15019.012497  19822.085600      1.007762
PJ01 -35836.163269  22064.562711   2113.050405   -336.223437
PJ02 -20279.761511  30860.357766 -15692.288836     -0.075281
PJ03 -29015.191236  23085.875153  25201.460854     -3.169467
PR01 -19440.315200  16067.804821  -3789.763218     70.682584
PR02  -3701.174287  14337.588187 -20756.011455    454.677411
PR03  12657.223998   3921.651155 -21751.984633     25.684322
PR04  21554.156048  -8719.988307 -10462.203505     61.783946
PR05  18423.000878 -16289.257726   6728.349532     61.228110
PR07 -13214.499402  -3449.816708  21581.374681    -41.373609
PR08 -21607.962093   8635.499536  10519.585730    -55.741547
PR09  -2855.204558 -25342.571724  -1432.987059      8.091498
PR11 -10857.956528   3288.108647 -22825.350188    -44.928237
PR12  -5733.559169  19588.465836 -15285.964964    180.698911
PR13   2787.579999  25332.232504   1103.694832    -46.737065
PR14   9627.748465  16060.481740  17331.581289     57.779235
PR15  10820.235079  -2273.172212  23011.227814    106.696153
PR16   5118.689250 -20154.147753  14665.117392     -8.296771
PR17  21258.517719  13081.189107   5387.028664    374.565591
PR18  22165.553430   5189.138243 -11444.864879     56.421857
PR19  12005.577944  -4759.461164 -21995.558689   -119.983139
PR20  -7513.030505 -13966.914899 -19978.740928   -426.746244
PR21 -21637.457118 -12771.612108  -4290.556214   -166.632568
PR22 -21796.817912  -4641.555038  12480.539850    -82.222777
PR23  -4760.404831   9257.804400  23283.357938    345.299504
PR24   8146.213858  14400.456157  19443.478696     20.767382
EOF
